SL-3 R/B                
1 13403U 82079B   26069.32311232  .00008526  00000+0  33950-3 0  9990
2 13403  81.1480 192.3291 0025048 162.7452 197.4639 15.24813483377799
SL-14 R/B               
1 13553U 82092B   26069.24857394  .00000551  00000+0  59104-4 0  9996
2 13553  82.5694 140.8769 0018979 301.5616 115.7311 14.86666977329018
SL-3 R/B                
1 13819U 83010B   26069.27864820  .00021396  00000+0  42916-3 0  9999
2 13819  81.1059   1.5253 0017933  49.1445 311.1350 15.46382912358038
SL-3 R/B                
1 14208U 83075B   26069.20745175  .00013876  00000+0  36563-3 0  9992
2 14208  97.6146  73.8042 0020165 223.9266 136.0376 15.38433317330233
COSMOS 1536             
1 14699U 84013A   26069.11391701  .00007227  00000+0  29800-3 0  9990
2 14699  82.5429 107.4289 0012458 281.6067  78.3771 15.23830686272682
SL-14 R/B               
1 14820U 84027B   26068.96249521  .00000644  00000+0  70784-4 0  9999
2 14820  82.5387 244.7567 0017328 336.9053  23.1383 14.85976757247670
SL-8 R/B                
1 15483U 85006B   26069.01646800  .00000364  00000+0  12918-3 0  9994
2 15483  74.0432 260.5471 0018431 178.3119 297.6652 14.37783120154075
SL-12 R/B(2)            
1 15772U 85042D   26069.33352863  .00000060  00000+0  48291-4 0  9990
2 15772  71.1062  86.3682 0033199 127.0798 325.9788 14.21982513114489
SL-14 R/B               
1 15945U 85069B   26069.28378107  .00000726  00000+0  79293-4 0  9999
2 15945  82.5287  24.3742 0018527 185.7129 174.3879 14.86434114172922
SL-16 R/B               
1 16182U 85097B   26069.26837749 -.00000199  00000+0 -75934-4 0  9998
2 16182  71.0027 139.3363 0009907 259.0861 158.5630 14.16598679 87314
SL-14 R/B               
1 16496U 86006B   26068.99149095  .00000811  00000+0  83830-4 0  9999
2 16496  82.5234 259.4531 0075050 271.7582  87.5040 14.86815340149255
COSMOS 1743             
1 16719U 86034A   26069.09149231  .00036090  00000+0  46990-3 0  9995
2 16719  82.5297  73.4092 0001648 291.0253  69.0827 15.58576552180319
