CCSDS_OMM_VERS = 2.0
CREATION_DATE  = 
ORIGINATOR     = 

OBJECT_NAME    = SL-3 R/B
OBJECT_ID      = 1982-079B
CENTER_NAME    = EARTH
REF_FRAME      = TEME
TIME_SYSTEM    = UTC
MEAN_ELEMENT_THEORY = SGP/SGP4

EPOCH          = 2026-03-10T07:45:16.904448
MEAN_MOTION    = 15.24813483
ECCENTRICITY   = .00250482
INCLINATION    = 81.1480
RA_OF_ASC_NODE = 192.3291
ARG_OF_PERICENTER = 162.7452
MEAN_ANOMALY   = 197.4639

EPHEMERIS_TYPE = 0
CLASSIFICATION_TYPE = U
NORAD_CAT_ID   = 13403
ELEMENT_SET_NO = 999
REV_AT_EPOCH   = 37779
BSTAR          = .33950447E-3
MEAN_MOTION_DOT = .8526E-4
MEAN_MOTION_DDOT = 0

CCSDS_OMM_VERS = 2.0
CREATION_DATE  = 
ORIGINATOR     = 

OBJECT_NAME    = SL-14 R/B
OBJECT_ID      = 1982-092B
CENTER_NAME    = EARTH
REF_FRAME      = TEME
TIME_SYSTEM    = UTC
MEAN_ELEMENT_THEORY = SGP/SGP4

EPOCH          = 2026-03-10T05:57:56.788416
MEAN_MOTION    = 14.86666977
ECCENTRICITY   = .00189797
INCLINATION    = 82.5694
RA_OF_ASC_NODE = 140.8769
ARG_OF_PERICENTER = 301.5616
MEAN_ANOMALY   = 115.7311

EPHEMERIS_TYPE = 0
CLASSIFICATION_TYPE = U
NORAD_CAT_ID   = 13553
ELEMENT_SET_NO = 999
REV_AT_EPOCH   = 32901
BSTAR          = .59104077E-4
MEAN_MOTION_DOT = .551E-5
MEAN_MOTION_DDOT = 0

CCSDS_OMM_VERS = 2.0
CREATION_DATE  = 
ORIGINATOR     = 

OBJECT_NAME    = SL-3 R/B
OBJECT_ID      = 1983-010B
CENTER_NAME    = EARTH
REF_FRAME      = TEME
TIME_SYSTEM    = UTC
MEAN_ELEMENT_THEORY = SGP/SGP4

EPOCH          = 2026-03-10T06:41:15.204480
MEAN_MOTION    = 15.46382912
ECCENTRICITY   = .00179336
INCLINATION    = 81.1059
RA_OF_ASC_NODE = 1.5253
ARG_OF_PERICENTER = 49.1445
MEAN_ANOMALY   = 311.1350

EPHEMERIS_TYPE = 0
CLASSIFICATION_TYPE = U
NORAD_CAT_ID   = 13819
ELEMENT_SET_NO = 999
REV_AT_EPOCH   = 35803
BSTAR          = .42916275E-3
MEAN_MOTION_DOT = .21396E-3
MEAN_MOTION_DDOT = 0

CCSDS_OMM_VERS = 2.0
CREATION_DATE  = 
ORIGINATOR     = 

OBJECT_NAME    = SL-3 R/B
OBJECT_ID      = 1983-075B
CENTER_NAME    = EARTH
REF_FRAME      = TEME
TIME_SYSTEM    = UTC
MEAN_ELEMENT_THEORY = SGP/SGP4

EPOCH          = 2026-03-10T04:58:43.831200
MEAN_MOTION    = 15.38433317
ECCENTRICITY   = .00201659
INCLINATION    = 97.6146
RA_OF_ASC_NODE = 73.8042
ARG_OF_PERICENTER = 223.9266
MEAN_ANOMALY   = 136.0376

EPHEMERIS_TYPE = 0
CLASSIFICATION_TYPE = U
NORAD_CAT_ID   = 14208
ELEMENT_SET_NO = 999
REV_AT_EPOCH   = 33023
BSTAR          = .3656315E-3
MEAN_MOTION_DOT = .13876E-3
MEAN_MOTION_DDOT = 0

CCSDS_OMM_VERS = 2.0
CREATION_DATE  = 
ORIGINATOR     = 

OBJECT_NAME    = COSMOS 1536
OBJECT_ID      = 1984-013A
CENTER_NAME    = EARTH
REF_FRAME      = TEME
TIME_SYSTEM    = UTC
MEAN_ELEMENT_THEORY = SGP/SGP4

EPOCH          = 2026-03-10T02:44:02.429664
MEAN_MOTION    = 15.23830686
ECCENTRICITY   = .00124589
INCLINATION    = 82.5429
RA_OF_ASC_NODE = 107.4289
ARG_OF_PERICENTER = 281.6067
MEAN_ANOMALY   = 78.3771

EPHEMERIS_TYPE = 0
CLASSIFICATION_TYPE = U
NORAD_CAT_ID   = 14699
ELEMENT_SET_NO = 999
REV_AT_EPOCH   = 27268
BSTAR          = .2979967E-3
MEAN_MOTION_DOT = .7227E-4
MEAN_MOTION_DDOT = 0

CCSDS_OMM_VERS = 2.0
CREATION_DATE  = 
ORIGINATOR     = 

OBJECT_NAME    = SL-14 R/B
OBJECT_ID      = 1984-027B
CENTER_NAME    = EARTH
REF_FRAME      = TEME
TIME_SYSTEM    = UTC
MEAN_ELEMENT_THEORY = SGP/SGP4

EPOCH          = 2026-03-09T23:05:59.586144
MEAN_MOTION    = 14.85976757
ECCENTRICITY   = .0017328
INCLINATION    = 82.5387
RA_OF_ASC_NODE = 244.7567
ARG_OF_PERICENTER = 336.9053
MEAN_ANOMALY   = 23.1383

EPHEMERIS_TYPE = 0
CLASSIFICATION_TYPE = U
NORAD_CAT_ID   = 14820
ELEMENT_SET_NO = 999
REV_AT_EPOCH   = 24767
BSTAR          = .70784E-4
MEAN_MOTION_DOT = .644E-5
MEAN_MOTION_DDOT = 0

CCSDS_OMM_VERS = 2.0
CREATION_DATE  = 
ORIGINATOR     = 

OBJECT_NAME    = SL-8 R/B
OBJECT_ID      = 1985-006B
CENTER_NAME    = EARTH
REF_FRAME      = TEME
TIME_SYSTEM    = UTC
MEAN_ELEMENT_THEORY = SGP/SGP4

EPOCH          = 2026-03-10T00:23:42.835200
MEAN_MOTION    = 14.37783120
ECCENTRICITY   = .00184318
INCLINATION    = 74.0432
RA_OF_ASC_NODE = 260.5471
ARG_OF_PERICENTER = 178.3119
MEAN_ANOMALY   = 297.6652

EPHEMERIS_TYPE = 0
CLASSIFICATION_TYPE = U
NORAD_CAT_ID   = 15483
ELEMENT_SET_NO = 999
REV_AT_EPOCH   = 15407
BSTAR          = .12918302E-3
MEAN_MOTION_DOT = .364E-5
MEAN_MOTION_DDOT = 0

CCSDS_OMM_VERS = 2.0
CREATION_DATE  = 
ORIGINATOR     = 

OBJECT_NAME    = SL-12 R/B(2)
OBJECT_ID      = 1985-042D
CENTER_NAME    = EARTH
REF_FRAME      = TEME
TIME_SYSTEM    = UTC
MEAN_ELEMENT_THEORY = SGP/SGP4

EPOCH          = 2026-03-10T08:00:16.873632
MEAN_MOTION    = 14.21982513
ECCENTRICITY   = .00331994
INCLINATION    = 71.1062
RA_OF_ASC_NODE = 86.3682
ARG_OF_PERICENTER = 127.0798
MEAN_ANOMALY   = 325.9788

EPHEMERIS_TYPE = 0
CLASSIFICATION_TYPE = U
NORAD_CAT_ID   = 15772
ELEMENT_SET_NO = 999
REV_AT_EPOCH   = 11448
BSTAR          = .48290688E-4
MEAN_MOTION_DOT = .6E-6
MEAN_MOTION_DDOT = 0

CCSDS_OMM_VERS = 2.0
CREATION_DATE  = 
ORIGINATOR     = 

OBJECT_NAME    = SL-14 R/B
OBJECT_ID      = 1985-069B
CENTER_NAME    = EARTH
REF_FRAME      = TEME
TIME_SYSTEM    = UTC
MEAN_ELEMENT_THEORY = SGP/SGP4

EPOCH          = 2026-03-10T06:48:38.684448
MEAN_MOTION    = 14.86434114
ECCENTRICITY   = .00185279
INCLINATION    = 82.5287
RA_OF_ASC_NODE = 24.3742
ARG_OF_PERICENTER = 185.7129
MEAN_ANOMALY   = 174.3879

EPHEMERIS_TYPE = 0
CLASSIFICATION_TYPE = U
NORAD_CAT_ID   = 15945
ELEMENT_SET_NO = 999
REV_AT_EPOCH   = 17292
BSTAR          = .79292838E-4
MEAN_MOTION_DOT = .726E-5
MEAN_MOTION_DDOT = 0

CCSDS_OMM_VERS = 2.0
CREATION_DATE  = 
ORIGINATOR     = 

OBJECT_NAME    = SL-16 R/B
OBJECT_ID      = 1985-097B
CENTER_NAME    = EARTH
REF_FRAME      = TEME
TIME_SYSTEM    = UTC
MEAN_ELEMENT_THEORY = SGP/SGP4

EPOCH          = 2026-03-10T06:26:27.815136
MEAN_MOTION    = 14.16598679
ECCENTRICITY   = .00099073
INCLINATION    = 71.0027
RA_OF_ASC_NODE = 139.3363
ARG_OF_PERICENTER = 259.0861
MEAN_ANOMALY   = 158.5630

EPHEMERIS_TYPE = 0
CLASSIFICATION_TYPE = U
NORAD_CAT_ID   = 16182
ELEMENT_SET_NO = 999
REV_AT_EPOCH   = 8731
BSTAR          = -.75933831E-4
MEAN_MOTION_DOT = -.199E-5
MEAN_MOTION_DDOT = 0

CCSDS_OMM_VERS = 2.0
CREATION_DATE  = 
ORIGINATOR     = 

OBJECT_NAME    = SL-14 R/B
OBJECT_ID      = 1986-006B
CENTER_NAME    = EARTH
REF_FRAME      = TEME
TIME_SYSTEM    = UTC
MEAN_ELEMENT_THEORY = SGP/SGP4

EPOCH          = 2026-03-09T23:47:44.818080
MEAN_MOTION    = 14.86815340
ECCENTRICITY   = .007505
INCLINATION    = 82.5234
RA_OF_ASC_NODE = 259.4531
ARG_OF_PERICENTER = 271.7582
MEAN_ANOMALY   = 87.5040

EPHEMERIS_TYPE = 0
CLASSIFICATION_TYPE = U
NORAD_CAT_ID   = 16496
ELEMENT_SET_NO = 999
REV_AT_EPOCH   = 14925
BSTAR          = .83829779E-4
MEAN_MOTION_DOT = .811E-5
MEAN_MOTION_DDOT = 0

CCSDS_OMM_VERS = 2.0
CREATION_DATE  = 
ORIGINATOR     = 

OBJECT_NAME    = COSMOS 1743
OBJECT_ID      = 1986-034A
CENTER_NAME    = EARTH
REF_FRAME      = TEME
TIME_SYSTEM    = UTC
MEAN_ELEMENT_THEORY = SGP/SGP4

EPOCH          = 2026-03-10T02:11:44.935584
MEAN_MOTION    = 15.58576552
ECCENTRICITY   = .00016482
INCLINATION    = 82.5297
RA_OF_ASC_NODE = 73.4092
ARG_OF_PERICENTER = 291.0253
MEAN_ANOMALY   = 69.0827

EPHEMERIS_TYPE = 0
CLASSIFICATION_TYPE = U
NORAD_CAT_ID   = 16719
ELEMENT_SET_NO = 999
REV_AT_EPOCH   = 18031
BSTAR          = .46990441E-3
MEAN_MOTION_DOT = .3609E-3
MEAN_MOTION_DDOT = 0

